{
  "type": "FeatureCollection",
  "features": [
    {"type": "Feature", "properties": {"manufacturer": "Fictional Cameras Ltd", "operator": "Cedar Police Department (fictional)", "url": null, "fictional": true},
     "geometry": {"type": "Point", "coordinates": [1.0, 1.0]}},
    {"type": "Feature", "properties": {"manufacturer": "Fictional Cameras Ltd", "operator": "", "url": null, "fictional": true},
     "geometry": {"type": "Point", "coordinates": [0.2, 1.8]}},
    {"type": "Feature", "properties": {"manufacturer": "", "operator": "", "url": null, "fictional": true},
     "geometry": {"type": "Point", "coordinates": [1.9, 0.3]}}
  ]
}
