{"type": "FeatureCollection", "features": [{"type": "Feature", "properties": {"fictional": true}, "geometry": {"type": "Point", "coordinates": [-120.7057, 35.1905]}}, {"type": "Feature", "properties": {"fictional": true}, "geometry": {"type": "Point", "coordinates": [-120.5094, 35.1435]}}, {"type": "Feature", "properties": {"fictional": true}, "geometry": {"type": "Point", "coordinates": [-120.5785, 35.3194]}}, {"type": "Feature", "properties": {"fictional": true}, "geometry": {"type": "Point", "coordinates": [-120.8652, 35.4045]}}, {"type": "Feature", "properties": {"fictional": true}, "geometry": {"type": "Point", "coordinates": [-120.8775, 35.3602]}}, {"type": "Feature", "properties": {"fictional": true}, "geometry": {"type": "Point", "coordinates": [-120.8581, 35.1544]}}, {"type": "Feature", "properties": {"fictional": true}, "geometry": {"type": "Point", "coordinates": [-120.6453, 35.5961]}}, {"type": "Feature", "properties": {"fictional": true}, "geometry": {"type": "Point", "coordinates": [-120.8257, 35.2339]}}, {"type": "Feature", "properties": {"fictional": true}, "geometry": {"type": "Point", "coordinates": [-120.5235, 35.6686]}}, {"type": "Feature", "properties": {"fictional": true}, "geometry": {"type": "Point", "coordinates": [-120.5537, 35.338]}}, {"type": "Feature", "properties": {"fictional": true}, "geometry": {"type": "Point", "coordinates": [-120.3142, 35.1279]}}, {"type": "Feature", "properties": {"fictional": true}, "geometry": {"type": "Point", "coordinates": [-120.3849, 35.2738]}}, {"type": "Feature", "properties": {"fictional": true}, "geometry": {"type": "Point", "coordinates": [-120.8134, 35.1707]}}, {"type": "Feature", "properties": {"fictional": true}, "geometry": {"type": "Point", "coordinates": [-120.7149, 35.5897]}}, {"type": "Feature", "properties": {"fictional": true}, "geometry": {"type": "Point", "coordinates": [-120.7916, 35.449]}}, {"type": "Feature", "properties": {"fictional": true}, "geometry": {"type": "Point", "coordinates": [-120.5167, 35.3234]}}, {"type": "Feature", "properties": {"fictional": true}, "geometry": {"type": "Point", "coordinates": [-120.5714, 35.1377]}}, {"type": "Feature", "properties": {"fictional": true}, "geometry": {"type": "Point", "coordinates": [-120.8642, 35.2236]}}, {"type": "Feature", "properties": {"fictional": true}, "geometry": {"type": "Point", "coordinates": [-120.4918, 35.3566]}}, {"type": "Feature", "properties": {"fictional": true}, "geometry": {"type": "Point", "coordinates": [-120.7115, 35.4513]}}, {"type": "Feature", "properties": {"fictional": true}, "geometry": {"type": "Point", "coordinates": [-120.6281, 35.2799]}}, {"type": "Feature", "properties": {"fictional": true}, "geometry": {"type": "Point", "coordinates": [-120.4234, 35.5194]}}, {"type": "Feature", "properties": {"fictional": true}, "geometry": {"type": "Point", "coordinates": [-120.7535, 35.4447]}}, {"type": "Feature", "properties": {"fictional": true}, "geometry": {"type": "Point", "coordinates": [-120.5849, 35.6251]}}]}